TIANMU-1 07             
1 57399U 23101A   26065.57454230  .00008352  00000+0  29795-3 0  9991
2 57399  97.2728 118.5929 0004609 142.4105 217.7458 15.29118809145964
STARLINK-31267          
1 59468U 24068P   26067.26591769 -.00000770  00000+0 -18480-4 0  9998
2 59468  43.0021  38.3404 0001137 277.3139  82.7584 15.27568172108355
